{"type": "FeatureCollection", "features": [ {"type": "Feature", "properties": {"norad_id": 34468, "name": "COSMOS 2251 DEB", "group": "cosmos-2251-debris", "lat": -39.87825148022846, "lon": 85.68055776302702, "alt_km": 725.7131329604026, "timestamp": "2025-12-22T04:03:39.562893+00:00", "meta": {"OBJECT_NAME": "COSMOS 2251 DEB", "OBJECT_ID": "1993-036TM", "EPOCH": "2025-12-21T16:38:39.734880", "MEAN_MOTION": 14.47646881, "ECCENTRICITY": 0.0076309, "INCLINATION": 74.0131, "RA_OF_ASC_NODE": 100.4297, "ARG_OF_PERICENTER": 243.5464, "MEAN_ANOMALY": 115.7852, "EPHEMERIS_TYPE": 0, "CLASSIFICATION_TYPE": "U", "NORAD_CAT_ID": 34468, "ELEMENT_SET_NO": 999, "REV_AT_EPOCH": 88591, "BSTAR": 0.0002813, "MEAN_MOTION_DOT": 1.046e-05, "MEAN_MOTION_DDOT": 0}, "tle": {"line1": "1 34468U 93036TM  25355.69351545  .00001046  00000+0  28130-3 0  9991", "line2": "2 34468  74.0131 100.4297 0076309 243.5464 115.7852 14.47646881885918"}}, "geometry": {"type": "Point", "coordinates": [85.68055776302702, -39.87825148022846]}}, {"type": "Feature", "properties": {"norad_id": 34472, "name": "COSMOS 2251 DEB", "group": "cosmos-2251-debris", "lat": -57.638643089129886, "lon": -70.60178758902724, "alt_km": 793.2861271272577, "timestamp": "2025-12-22T04:03:39.562903+00:00", "meta": {"OBJECT_NAME": "COSMOS 2251 DEB", "OBJECT_ID": "1993-036TR", "EPOCH": "2025-12-21T16:22:23.941056", "MEAN_MOTION": 13.70344234, "ECCENTRICITY": 0.0327831, "INCLINATION": 74.0843, "RA_OF_ASC_NODE": 83.4375, "ARG_OF_PERICENTER": 212.5022, "MEAN_ANOMALY": 145.5535, "EPHEMERIS_TYPE": 0, "CLASSIFICATION_TYPE": "U", "NORAD_CAT_ID": 34472, "ELEMENT_SET_NO": 999, "REV_AT_EPOCH": 83849, "BSTAR": 0.00054868, "MEAN_MOTION_DOT": 6.85e-06, "MEAN_MOTION_DDOT": 0}, "tle": {"line1": "1 34472U 93036TR  25355.68222154  .00000685  00000+0  54868-3 0  9993", "line2": "2 34472  74.0843  83.4375 0327831 212.5022 145.5535 13.70344234838497"}}, "geometry": {"type": "Point", "coordinates": [-70.60178758902724, -57.638643089129886]}}, {"type": "Feature", "properties": {"norad_id": 34474, "name": "COSMOS 2251 DEB", "group": "cosmos-2251-debris", "lat": 19.260752162566778, "lon": 123.99186384075061, "alt_km": 978.2278546086709, "timestamp": "2025-12-22T04:03:39.562913+00:00", "meta": {"OBJECT_NAME": "COSMOS 2251 DEB", "OBJECT_ID": "1993-036TT", "EPOCH": "2025-12-21T07:31:55.934112", "MEAN_MOTION": 14.06476369, "ECCENTRICITY": 0.01991372, "INCLINATION": 74.0784, "RA_OF_ASC_NODE": 311.2089, "ARG_OF_PERICENTER": 22.9422, "MEAN_ANOMALY": 126.0693, "EPHEMERIS_TYPE": 0, "CLASSIFICATION_TYPE": "U", "NORAD_CAT_ID": 34474, "ELEMENT_SET_NO": 999, "REV_AT_EPOCH": 85629, "BSTAR": 0.001939228, "MEAN_MOTION_DOT": 3.816e-05, "MEAN_MOTION_DDOT": 0}, "tle": {"line1": "1 34474U 93036TT  25355.31384183  .00003816  00000+0  19392-2 0  9997", "line2": "2 34474  74.0784 311.2089 0199137  22.9422 126.0693 14.06476369856292"}}, "geometry": {"type": "Point", "coordinates": [123.99186384075061, 19.260752162566778]}}, {"type": "Feature", "properties": {"norad_id": 34476, "name": "COSMOS 2251 DEB", "group": "cosmos-2251-debris", "lat": 25.83089615464039, "lon": 74.5909766041122, "alt_km": 1000.3552511641201, "timestamp": "2025-12-22T04:03:39.562924+00:00", "meta": {"OBJECT_NAME": "COSMOS 2251 DEB", "OBJECT_ID": "1993-036TV", "EPOCH": "2025-12-19T15:07:53.916960", "MEAN_MOTION": 13.82094314, "ECCENTRICITY": 0.0321638, "INCLINATION": 74.0055, "RA_OF_ASC_NODE": 70.8879, "ARG_OF_PERICENTER": 289.0132, "MEAN_ANOMALY": 67.6405, "EPHEMERIS_TYPE": 0, "CLASSIFICATION_TYPE": "U", "NORAD_CAT_ID": 34476, "ELEMENT_SET_NO": 999, "REV_AT_EPOCH": 83733, "BSTAR": 0.0025746, "MEAN_MOTION_DOT": 4.089e-05, "MEAN_MOTION_DDOT": 0}, "tle": {"line1": "1 34476U 93036TV  25353.63048515  .00004089  00000+0  25746-2 0  9991", "line2": "2 34476  74.0055  70.8879 0321638 289.0132  67.6405 13.82094314837331"}}, "geometry": {"type": "Point", "coordinates": [74.5909766041122, 25.83089615464039]}}, {"type": "Feature", "properties": {"norad_id": 34477, "name": "COSMOS 2251 DEB", "group": "cosmos-2251-debris", "lat": -59.6388210739407, "lon": 22.158346153985384, "alt_km": 681.8280996154708, "timestamp": "2025-12-22T04:03:39.562934+00:00", "meta": {"OBJECT_NAME": "COSMOS 2251 DEB", "OBJECT_ID": "1993-036TW", "EPOCH": "2025-12-21T07:28:47.243424", "MEAN_MOTION": 14.56918163, "ECCENTRICITY": 0.00767881, "INCLINATION": 73.9787, "RA_OF_ASC_NODE": 53.1663, "ARG_OF_PERICENTER": 238.7332, "MEAN_ANOMALY": 240.7629, "EPHEMERIS_TYPE": 0, "CLASSIFICATION_TYPE": "U", "NORAD_CAT_ID": 34477, "ELEMENT_SET_NO": 999, "REV_AT_EPOCH": 88750, "BSTAR": 0.00057201543, "MEAN_MOTION_DOT": 2.641e-05, "MEAN_MOTION_DDOT": 0}, "tle": {"line1": "1 34477U 93036TW  25355.31165791  .00002641  00000+0  57202-3 0  9990", "line2": "2 34477  73.9787  53.1663 0076788 238.7332 240.7629 14.56918163887508"}}, "geometry": {"type": "Point", "coordinates": [22.158346153985384, -59.6388210739407]}}, {"type": "Feature", "properties": {"norad_id": 34478, "name": "COSMOS 2251 DEB", "group": "cosmos-2251-debris", "lat": 57.204906133025396, "lon": 141.10711120449744, "alt_km": 533.0967008682428, "timestamp": "2025-12-22T04:03:39.562944+00:00", "meta": {"OBJECT_NAME": "COSMOS 2251 DEB", "OBJECT_ID": "1993-036TX", "EPOCH": "2025-12-21T04:12:46.485792", "MEAN_MOTION": 15.08639002, "ECCENTRICITY": 0.00340243, "INCLINATION": 74.0409, "RA_OF_ASC_NODE": 349.5203, "ARG_OF_PERICENTER": 208.4525, "MEAN_ANOMALY": 276.406, "EPHEMERIS_TYPE": 0, "CLASSIFICATION_TYPE": "U", "NORAD_CAT_ID": 34478, "ELEMENT_SET_NO": 999, "REV_AT_EPOCH": 89100, "BSTAR": 0.0018985498, "MEAN_MOTION_DOT": 0.00030215, "MEAN_MOTION_DDOT": 0}, "tle": {"line1": "1 34478U 93036TX  25355.17553803  .00030215  00000+0  18985-2 0  9992", "line2": "2 34478  74.0409 349.5203 0034024 208.4525 276.4060 15.08639002891004"}}, "geometry": {"type": "Point", "coordinates": [141.10711120449744, 57.204906133025396]}}, {"type": "Feature", "properties": {"norad_id": 34481, "name": "COSMOS 2251 DEB", "group": "cosmos-2251-debris", "lat": 22.508619946359147, "lon": 43.01962921667767, "alt_km": 832.6397381643528, "timestamp": "2025-12-22T04:03:39.562954+00:00", "meta": {"OBJECT_NAME": "COSMOS 2251 DEB", "OBJECT_ID": "1993-036UA", "EPOCH": "2025-12-21T04:45:38.329920", "MEAN_MOTION": 14.32578125, "ECCENTRICITY": 0.0070424, "INCLINATION": 73.9791, "RA_OF_ASC_NODE": 37.9595, "ARG_OF_PERICENTER": 210.7447, "MEAN_ANOMALY": 207.8165, "EPHEMERIS_TYPE": 0, "CLASSIFICATION_TYPE": "U", "NORAD_CAT_ID": 34481, "ELEMENT_SET_NO": 999, "REV_AT_EPOCH": 87570, "BSTAR": 0.00043382265, "MEAN_MOTION_DOT": 1.184e-05, "MEAN_MOTION_DDOT": 0}, "tle": {"line1": "1 34481U 93036UA  25355.19836030  .00001184  00000+0  43382-3 0  9997", "line2": "2 34481  73.9791  37.9595 0070424 210.7447 207.8165 14.32578125875702"}}, "geometry": {"type": "Point", "coordinates": [43.01962921667767, 22.508619946359147]}}, {"type": "Feature", "properties": {"norad_id": 34482, "name": "COSMOS 2251 DEB", "group": "cosmos-2251-debris", "lat": -0.8615694084713371, "lon": -154.91430395248284, "alt_km": 668.8736371252271, "timestamp": "2025-12-22T04:03:39.562963+00:00", "meta": {"OBJECT_NAME": "COSMOS 2251 DEB", "OBJECT_ID": "1993-036UB", "EPOCH": "2025-12-21T13:27:22.611168", "MEAN_MOTION": 14.69336573, "ECCENTRICITY": 0.0044486, "INCLINATION": 74.0355, "RA_OF_ASC_NODE": 206.5105, "ARG_OF_PERICENTER": 264.8941, "MEAN_ANOMALY": 116.2597, "EPHEMERIS_TYPE": 0, "CLASSIFICATION_TYPE": "U", "NORAD_CAT_ID": 34482, "ELEMENT_SET_NO": 999, "REV_AT_EPOCH": 88317, "BSTAR": 0.0012056, "MEAN_MOTION_DOT": 7.205e-05, "MEAN_MOTION_DDOT": 0}, "tle": {"line1": "1 34482U 93036UB  25355.56067837  .00007205  00000+0  12056-2 0  9993", "line2": "2 34482  74.0355 206.5105 0044486 264.8941 116.2597 14.69336573883171"}}, "geometry": {"type": "Point", "coordinates": [-154.91430395248284, -0.8615694084713371]}}, {"type": "Feature", "properties": {"norad_id": 34544, "name": "COSMOS 2251 DEB", "group": "cosmos-2251-debris", "lat": -36.64531964202022, "lon": 176.36957904006715, "alt_km": 1130.4686437896416, "timestamp": "2025-12-22T04:03:39.562973+00:00", "meta": {"OBJECT_NAME": "COSMOS 2251 DEB", "OBJECT_ID": "1993-036UE", "EPOCH": "2025-12-20T22:45:44.746848", "MEAN_MOTION": 13.5466917, "ECCENTRICITY": 0.0383747, "INCLINATION": 73.914, "RA_OF_ASC_NODE": 190.7401, "ARG_OF_PERICENTER": 217.6803, "MEAN_ANOMALY": 268.4727, "EPHEMERIS_TYPE": 0, "CLASSIFICATION_TYPE": "U", "NORAD_CAT_ID": 34544, "ELEMENT_SET_NO": 999, "REV_AT_EPOCH": 82993, "BSTAR": 0.00030868, "MEAN_MOTION_DOT": 3.15e-06, "MEAN_MOTION_DDOT": 0}, "tle": {"line1": "1 34544U 93036UE  25354.94843457  .00000315  00000+0  30868-3 0  9990", "line2": "2 34544  73.9140 190.7401 0383747 217.6803 268.4727 13.54669170829936"}}, "geometry": {"type": "Point", "coordinates": [176.36957904006715, -36.64531964202022]}}, {"type": "Feature", "properties": {"norad_id": 34546, "name": "COSMOS 2251 DEB", "group": "cosmos-2251-debris", "lat": 68.14614872717098, "lon": 6.040050959605326, "alt_km": 748.3895077617999, "timestamp": "2025-12-22T04:03:39.562983+00:00", "meta": {"OBJECT_NAME": "COSMOS 2251 DEB", "OBJECT_ID": "1993-036UG", "EPOCH": "2025-12-21T19:49:27.452352", "MEAN_MOTION": 14.45445236, "ECCENTRICITY": 0.0022038, "INCLINATION": 74.0297, "RA_OF_ASC_NODE": 232.2437, "ARG_OF_PERICENTER": 305.0419, "MEAN_ANOMALY": 174.8231, "EPHEMERIS_TYPE": 0, "CLASSIFICATION_TYPE": "U", "NORAD_CAT_ID": 34546, "ELEMENT_SET_NO": 999, "REV_AT_EPOCH": 88157, "BSTAR": 0.00040952, "MEAN_MOTION_DOT": 1.42e-05, "MEAN_MOTION_DDOT": 0}, "tle": {"line1": "1 34546U 93036UG  25355.82601218  .00001420  00000+0  40952-3 0  9990", "line2": "2 34546  74.0297 232.2437 0022038 305.0419 174.8231 14.45445236881576"}}, "geometry": {"type": "Point", "coordinates": [6.040050959605326, 68.14614872717098]}}]}